STARLINK-1743
1 16568C 20070AN  21326.13820637  .00039842  00000-0  88447-3 0  3266
2 16568  53.0540 357.5840 0008361 321.1746 145.8385 15.43047374    15
